{
  "type": "FeatureCollection",
  "features": [
    {
      "type": "Feature",
      "properties": {
        "norad_id": 41330,
        "name": "COSMOS 2514 (751)",
        "group": "gnss",
        "lat": 64.03916669888703,
        "lon": 31.2503568263929,
        "alt_km": 19145.081393387234,
        "timestamp": "2025-12-22T11:33:20.682622+00:00",
        "meta_object_name": "COSMOS 2514 (751)",
        "meta_object_id": "2016-008A",
        "meta_epoch": "2025-12-21T10:27:05.552352",
        "meta_mean_motion": 2.13102677,
        "meta_eccentricity": 0.0011723,
        "meta_inclination": 65.1288,
        "meta_ra_of_asc_node": 319.1063,
        "meta_arg_of_pericenter": 220.1275,
        "meta_mean_anomaly": 139.7798,
        "meta_ephemeris_type": 0,
        "meta_classification_type": "U",
        "meta_norad_cat_id": 41330,
        "meta_element_set_no": 999,
        "meta_rev_at_epoch": 7683,
        "meta_bstar": 0,
        "meta_mean_motion_dot": -4.6e-07,
        "meta_mean_motion_ddot": 0,
        "tle_line1": "1 41330U 16008A   25355.43548093 -.00000046  00000+0  00000+0 0  9991",
        "tle_line2": "2 41330  65.1288 319.1063 0011723 220.1275 139.7798  2.13102677 76836"
      },
      "geometry": {
        "type": "Point",
        "coordinates": [
          31.2503568263929,
          64.03916669888703
        ]
      }
    },
    {
      "type": "Feature",
      "properties": {
        "norad_id": 41384,
        "name": "IRNSS-1F",
        "group": "gnss",
        "lat": -1.3852883465263428,
        "lon": -62.89772838232691,
        "alt_km": 35691.69312042478,
        "timestamp": "2025-12-22T11:33:20.682634+00:00",
        "meta_object_name": "IRNSS-1F",
        "meta_object_id": "2016-015A",
        "meta_epoch": "2025-12-21T23:49:21.941184",
        "meta_mean_motion": 1.00277151,
        "meta_eccentricity": 0.0022658,
        "meta_inclination": 4.9043,
        "meta_ra_of_asc_node": 101.0685,
        "meta_arg_of_pericenter": 181.8382,
        "meta_mean_anomaly": 197.6998,
        "meta_ephemeris_type": 0,
        "meta_classification_type": "U",
        "meta_norad_cat_id": 41384,
        "meta_element_set_no": 999,
        "meta_rev_at_epoch": 3589,
        "meta_bstar": 0,
        "meta_mean_motion_dot": 1.77e-06,
        "meta_mean_motion_ddot": 0,
        "tle_line1": "1 41384U 16015A   25355.99261506  .00000177  00000+0  00000+0 0  9994",
        "tle_line2": "2 41384   4.9043 101.0685 0022658 181.8382 197.6998  1.00277151 35895"
      },
      "geometry": {
        "type": "Point",
        "coordinates": [
          -62.89772838232691,
          -1.3852883465263428
        ]
      }
    },
    {
      "type": "Feature",
      "properties": {
        "norad_id": 41434,
        "name": "BEIDOU-2 IGSO-6 (C13)",
        "group": "gnss",
        "lat": -34.65920193293877,
        "lon": 16.28853703473785,
        "alt_km": 35777.43692178675,
        "timestamp": "2025-12-22T11:33:20.682647+00:00",
        "meta_object_name": "BEIDOU-2 IGSO-6 (C13)",
        "meta_object_id": "2016-021A",
        "meta_epoch": "2025-12-18T14:33:38.837664",
        "meta_mean_motion": 1.00292299,
        "meta_eccentricity": 0.00610054,
        "meta_inclination": 59.9732,
        "meta_ra_of_asc_node": 39.8392,
        "meta_arg_of_pericenter": 230.2031,
        "meta_mean_anomaly": 129.1398,
        "meta_ephemeris_type": 0,
        "meta_classification_type": "U",
        "meta_norad_cat_id": 41434,
        "meta_element_set_no": 999,
        "meta_rev_at_epoch": 3566,
        "meta_bstar": 0,
        "meta_mean_motion_dot": -1.41e-06,
        "meta_mean_motion_ddot": 0,
        "tle_line1": "1 41434U 16021A   25352.60669951 -.00000141  00000+0  00000+0 0  9990",
        "tle_line2": "2 41434  59.9732  39.8392 0061005 230.2031 129.1398  1.00292299 35667"
      },
      "geometry": {
        "type": "Point",
        "coordinates": [
          16.28853703473785,
          -34.65920193293877
        ]
      }
    },
    {
      "type": "Feature",
      "properties": {
        "norad_id": 41469,
        "name": "IRNSS-1G",
        "group": "gnss",
        "lat": -4.3931828320529815,
        "lon": 34.20691771106642,
        "alt_km": 35776.81770675973,
        "timestamp": "2025-12-22T11:33:20.682659+00:00",
        "meta_object_name": "IRNSS-1G",
        "meta_object_id": "2016-027A",
        "meta_epoch": "2025-12-21T20:26:21.664032",
        "meta_mean_motion": 1.00275643,
        "meta_eccentricity": 0.0002621,
        "meta_inclination": 4.7568,
        "meta_ra_of_asc_node": 101.8634,
        "meta_arg_of_pericenter": 329.136,
        "meta_mean_anomaly": 95.7807,
        "meta_ephemeris_type": 0,
        "meta_classification_type": "U",
        "meta_norad_cat_id": 41469,
        "meta_element_set_no": 999,
        "meta_rev_at_epoch": 3540,
        "meta_bstar": 0,
        "meta_mean_motion_dot": -3.15e-06,
        "meta_mean_motion_ddot": 0,
        "tle_line1": "1 41469U 16027A   25355.85163963 -.00000315  00000+0  00000+0 0  9999",
        "tle_line2": "2 41469   4.7568 101.8634 0002621 329.1360  95.7807  1.00275643 35400"
      },
      "geometry": {
        "type": "Point",
        "coordinates": [
          34.20691771106642,
          -4.3931828320529815
        ]
      }
    },
    {
      "type": "Feature",
      "properties": {
        "norad_id": 41549,
        "name": "GSAT0211 (GALILEO 14)",
        "group": "gnss",
        "lat": 23.051901865973555,
        "lon": 29.3292239819571,
        "alt_km": 23227.904789477136,
        "timestamp": "2025-12-22T11:33:20.682671+00:00",
        "meta_object_name": "GSAT0211 (GALILEO 14)",
        "meta_object_id": "2016-030A",
        "meta_epoch": "2025-12-20T11:24:03.549312",
        "meta_mean_motion": 1.70473323,
        "meta_eccentricity": 0.00041244,
        "meta_inclination": 55.1495,
        "meta_ra_of_asc_node": 226.6105,
        "meta_arg_of_pericenter": 17.8253,
        "meta_mean_anomaly": 342.2987,
        "meta_ephemeris_type": 0,
        "meta_classification_type": "U",
        "meta_norad_cat_id": 41549,
        "meta_element_set_no": 999,
        "meta_rev_at_epoch": 5962,
        "meta_bstar": 0,
        "meta_mean_motion_dot": 7.1e-07,
        "meta_mean_motion_ddot": 0,
        "tle_line1": "1 41549U 16030A   25354.47504108  .00000071  00000+0  00000+0 0  9997",
        "tle_line2": "2 41549  55.1495 226.6105 0004124  17.8253 342.2987  1.70473323 59620"
      },
      "geometry": {
        "type": "Point",
        "coordinates": [
          29.3292239819571,
          23.051901865973555
        ]
      }
    },
    {
      "type": "Feature",
      "properties": {
        "norad_id": 41550,
        "name": "GSAT0210 (GALILEO 13)",
        "group": "gnss",
        "lat": -5.3792898111927485,
        "lon": -137.19114357380235,
        "alt_km": 23224.683316515766,
        "timestamp": "2025-12-22T11:33:20.682683+00:00",
        "meta_object_name": "GSAT0210 (GALILEO 13)",
        "meta_object_id": "2016-030B",
        "meta_epoch": "2025-12-21T21:44:03.727680",
        "meta_mean_motion": 1.70473553,
        "meta_eccentricity": 6.61e-05,
        "meta_inclination": 55.1487,
        "meta_ra_of_asc_node": 226.5692,
        "meta_arg_of_pericenter": 213.9992,
        "meta_mean_anomaly": 146.1033,
        "meta_ephemeris_type": 0,
        "meta_classification_type": "U",
        "meta_norad_cat_id": 41550,
        "meta_element_set_no": 999,
        "meta_rev_at_epoch": 5964,
        "meta_bstar": 0,
        "meta_mean_motion_dot": 7.3e-07,
        "meta_mean_motion_ddot": 0,
        "tle_line1": "1 41550U 16030B   25355.90559870  .00000073  00000+0  00000+0 0  9996",
        "tle_line2": "2 41550  55.1487 226.5692 0000661 213.9992 146.1033  1.70473553 59644"
      },
      "geometry": {
        "type": "Point",
        "coordinates": [
          -137.19114357380235,
          -5.3792898111927485
        ]
      }
    },
    {
      "type": "Feature",
      "properties": {
        "norad_id": 41586,
        "name": "BEIDOU-2 G7 (C03)",
        "group": "gnss",
        "lat": -1.414952322129591,
        "lon": 15.03100190506913,
        "alt_km": 35774.45977302266,
        "timestamp": "2025-12-22T11:33:20.682695+00:00",
        "meta_object_name": "BEIDOU-2 G7 (C03)",
        "meta_object_id": "2016-037A",
        "meta_epoch": "2025-12-19T15:57:04.317984",
        "meta_mean_motion": 1.00271972,
        "meta_eccentricity": 0.0005143,
        "meta_inclination": 1.7733,
        "meta_ra_of_asc_node": 67.8469,
        "meta_arg_of_pericenter": 2.9481,
        "meta_mean_anomaly": 7.4377,
        "meta_ephemeris_type": 0,
        "meta_classification_type": "U",
        "meta_norad_cat_id": 41586,
        "meta_element_set_no": 999,
        "meta_rev_at_epoch": 509,
        "meta_bstar": 0,
        "meta_mean_motion_dot": -3.3e-06,
        "meta_mean_motion_ddot": 0,
        "tle_line1": "1 41586U 16037A   25353.66463331 -.00000330  00000+0  00000+0 0  9996",
        "tle_line2": "2 41586   1.7733  67.8469 0005143   2.9481   7.4377  1.00271972  5095"
      },
      "geometry": {
        "type": "Point",
        "coordinates": [
          15.03100190506913,
          -1.414952322129591
        ]
      }
    }
  ]
}